M2 PATHFINDER           
1 45727U 20037E   20195.50807208 -.00000199  00000-0 -14442-4 0  9994
2 45727  97.7024  15.0377 0012107 207.6856 152.3742 14.91201655  1902
